{
    "links": {
        "self": "http://www.neowsapp.com/rest/v1/neo/3586022?api_key=iIulBulltgU6a56xZRHN4H3l9WmuAYTsLGpBGhQ2"
    },
    "id": "3586022",
    "neo_reference_id": "3586022",
    "name": "(2011 VP5)",
    "designation": "2011 VP5",
    "nasa_jpl_url": "http://ssd.jpl.nasa.gov/sbdb.cgi?sstr=3586022",
    "absolute_magnitude_h": 22.7,
    "estimated_diameter": {
        "kilometers": {
            "estimated_diameter_min": 0.0766575574,
            "estimated_diameter_max": 0.1714115092
        },
        "meters": {
            "estimated_diameter_min": 76.6575573531,
            "estimated_diameter_max": 171.4115092306
        },
        "miles": {
            "estimated_diameter_min": 0.0476327831,
            "estimated_diameter_max": 0.1065101409
        },
        "feet": {
            "estimated_diameter_min": 251.5011804664,
            "estimated_diameter_max": 562.3737359442
        }
    },
    "is_potentially_hazardous_asteroid": false,
    "close_approach_data": [
        {
            "close_approach_date": "2011-10-30",
            "close_approach_date_full": "2011-Oct-30 04:26",
            "epoch_date_close_approach": 1319948760000,
            "relative_velocity": {
                "kilometers_per_second": "2.1704247716",
                "kilometers_per_hour": "7813.5291775854",
                "miles_per_hour": "4855.0231714835"
            },
            "miss_distance": {
                "astronomical": "0.3108226454",
                "lunar": "120.9100090606",
                "kilometers": "46498405.699605298",
                "miles": "28892769.5262091924"
            },
            "orbiting_body": "Earth"
        }
    ],
    "orbital_data": {
        "orbit_id": "6",
        "orbit_determination_date": "2017-04-06 08:52:05",
        "first_observation_date": "2011-11-02",
        "last_observation_date": "2011-11-29",
        "data_arc_in_days": 27,
        "observations_used": 17,
        "orbit_uncertainty": "7",
        "minimum_orbit_intersection": ".294341",
        "jupiter_tisserand_invariant": "3.318",
        "epoch_osculation": "2459000.5",
        "eccentricity": ".4790152813970894",
        "semi_major_axis": "2.464252078617432",
        "inclination": "3.041651940877967",
        "ascending_node_longitude": "267.0100562924694",
        "orbital_period": "1412.947821649144",
        "perihelion_distance": "1.28383767574514",
        "perihelion_argument": "126.1407272571094",
        "aphelion_distance": "3.644666481489724",
        "perihelion_time": "2458688.953668540958",
        "mean_anomaly": "79.37779273005977",
        "mean_motion": ".2547864786541235",
        "equinox": "J2000",
        "orbit_class": {
            "orbit_class_type": "AMO",
            "orbit_class_description": "Near-Earth asteroid orbits similar to that of 1221 Amor",
            "orbit_class_range": "1.017 AU < q (perihelion) < 1.3 AU"
        }
    },
    "is_sentry_object": false
}